[{"OBJECT_NAME":"STARLINK-32617","OBJECT_ID":"2024-217V","EPOCH":"2026-03-09T15:06:25.002720","MEAN_MOTION":15.30191631,"ECCENTRICITY":0.0001102,"INCLINATION":53.1607,"RA_OF_ASC_NODE":181.2847,"ARG_OF_PERICENTER":83.9922,"MEAN_ANOMALY":276.1205,"EPHEMERIS_TYPE":0,"CLASSIFICATION_TYPE":"U","NORAD_CAT_ID":62076,"ELEMENT_SET_NO":999,"REV_AT_EPOCH":7359,"BSTAR":0.00097861,"MEAN_MOTION_DOT":0.00028729,"MEAN_MOTION_DDOT":0},{"OBJECT_NAME":"TEVEL2-6","OBJECT_ID":"2025-052F","EPOCH":"2026-03-09T15:35:24.554400","MEAN_MOTION":15.30760889,"ECCENTRICITY":0.0004769,"INCLINATION":97.4016,"RA_OF_ASC_NODE":325.0381,"ARG_OF_PERICENTER":95.6604,"MEAN_ANOMALY":264.5181,"EPHEMERIS_TYPE":0,"CLASSIFICATION_TYPE":"U","NORAD_CAT_ID":63215,"ELEMENT_SET_NO":999,"REV_AT_EPOCH":5486,"BSTAR":0.00070909,"MEAN_MOTION_DOT":0.00021046,"MEAN_MOTION_DDOT":0}]
